[Satellite]
VERSION=1.1
NAME=IRIDIUM 107 [+]
NICKNAME=IRIDIUM 107 [+]
TLE1=1 42960U 17061F   19317.50391806  .00000082  00000-0  22052-4 0  9994
TLE2=2 42960  86.3932 311.3681 0002065  86.7508 273.3924 14.34217871109732
STATUS=0
